satname,norad_id,inclination_deg,eccentricity,mean_motion_rev_per_day,perigee_km,apogee_km,l1,l2
STARLINK-1167,45071,53.055,0.0001582,15.06388549,546.1510581323155,548.3422495203858,1 45071U 20006AD  25284.11111144  .00001755  00000+0  13673-3 0  9990,2 45071  53.0550 218.0988 0001582 113.6291 246.4864 15.06388549314193
STARLINK-1168,45072,53.0532,0.0001365,15.06394908,546.2818520204382,548.172476437272,1 45072U 20006AE  25284.11479700  .00001522  00000+0  12105-3 0  9997,2 45072  53.0532 218.0862 0001365  94.4727 265.6418 15.06394908314198
STARLINK-1172,45074,53.0545,0.0001564,15.06403009,546.1192127298855,548.2854588741238,1 45074U 20006AG  25284.12585627  .00002490  00000+0  18601-3 0  9998,2 45074  53.0545 218.0355 0001564  83.2997 276.8170 15.06403009314199
STARLINK-1153,45080,53.055,0.0001335,15.06393893,546.3057385457187,548.154811608164,1 45080U 20006AN  25284.10374158  .00000546  00000+0  55522-4 0  9992,2 45080  53.0550 218.1394 0001335  92.4761 267.6381 15.06393893314194
STARLINK-1151,45081,53.055,0.0001515,15.06388361,546.1980343157848,548.2964257374833,1 45081U 20006AP  25284.08900589 -.00000561  00000+0 -18754-4 0  9998,2 45081  53.0550 218.2778 0001515  89.8693 270.2470 15.06388361314199
STARLINK-1190,45083,53.0441,0.0007029,15.80384681,324.6372749316715,334.0666629241905,1 45083U 20006AR  25284.33335648  .00120432  00000+0  61799-3 0  9990,2 45083  53.0441 179.2483 0007029 115.3259 172.2825 15.80384681  6059
STARLINK-1173,45084,53.0389,0.0001376,15.9602101,284.55405190052625,286.3878768123159,1 45084U 20006AS  25284.33335648  .00293337  45285-4  70476-3 0  9997,2 45084  53.0389 141.3361 0001376  76.1426 248.6039 15.96021010  6073
STARLINK-1185,45087,53.053,0.0001548,15.06398338,546.1446069883004,548.2886964788777,1 45087U 20006AV  25284.06503667  .00001457  00000+0  11669-3 0  9998,2 45087  53.0530 198.3055 0001548  81.1973 278.9191 15.06398338314472
STARLINK-1183,45088,53.0538,0.000126,15.06399402,546.3407965735241,548.0859848719865,1 45088U 20006AW  25284.08715751  .00004514  00000+0  32172-3 0  9999,2 45088  53.0538 198.2115 0001260  96.6854 263.4278 15.06399402314475
STARLINK-1176,45090,53.0443,9.29e-05,15.92448297,294.8139569880195,296.05390646713477,1 45090U 20006AY  25284.33335648  .00258292  36268-4  75202-3 0  9998,2 45090  53.0443 139.4911 0000929 319.8357 318.1143 15.92448297  6067
STARLINK-1142,45093,53.0361,0.0004357,15.55131432,398.81659393405243,404.72460541640885,1 45093U 20006BB  25283.99603429  .00088863  00000+0  12878-2 0  9991,2 45093  53.0361 139.4554 0004357 158.2047 201.9149 15.55131432315294
STARLINK-1147,45095,53.0316,0.0003205,16.14571643,232.2123771368897,236.4509695565048,1 45095U 20006BD  25284.58222365  .01142111  89388-3  87616-3 0  9996,2 45095  53.0316 132.7776 0003205 257.6552 102.4125 16.14571643315437
STARLINK-1152,45096,53.0477,0.0008832,15.22501165,492.2259469563687,504.3724838872904,1 45096U 20006BE  25283.98763331  .00003085  00000+0  14555-3 0  9990,2 45096  53.0477 183.2784 0008832 102.8962 257.3021 15.22501165314673
STARLINK-1184,45098,53.0535,0.0001395,15.06405077,546.2299137550208,548.1620816613804,1 45098U 20006BG  25284.03555441  .00008048  00000+0  55846-3 0  9992,2 45098  53.0535 198.4419 0001395  85.5357 274.5792 15.06405077314465
STARLINK-1193,45100,53.0533,0.0001385,15.06391172,546.2794500963219,548.1977791415711,1 45100U 20006BJ  25284.03184484 -.00001643  00000+0 -91434-4 0  9991,2 45100  53.0533 198.4578 0001385  83.9741 276.1406 15.06391172314461
STARLINK-1143,45179,53.0552,0.0006033,15.37335105,449.8715478990507,458.11519640609094,1 45179U 20012B   25284.32115873  .00071874  00000+0  19271-2 0  9990,2 45179  53.0552 325.4906 0006033 322.9027  37.1558 15.37335105312776
STARLINK-1202,45183,53.0567,0.0001928,15.06398487,545.8809869732377,548.5514031652565,1 45183U 20012F   25283.43103749  .00000665  00000+0  63548-4 0  9993,2 45183  53.0567   1.1590 0001928 126.3394 233.7773 15.06398487312192
STARLINK-1216,45185,53.0547,0.0001146,15.06394163,546.4358005654713,548.0230945552521,1 45185U 20012H   25283.62271016 -.00002721  00000+0 -16388-3 0  9995,2 45185  53.0547   0.2956 0001146  84.1744 275.9376 15.06394163312161
STARLINK-1225,45187,53.0557,0.0001219,15.06389572,546.3993145555432,548.0877223259386,1 45187U 20012K   25283.50844589 -.00004398  00000+0 -27664-3 0  9996,2 45187  53.0557   0.8094 0001219  93.0399 267.0729 15.06389572312194
STARLINK-1230,45189,53.0556,0.0001281,15.06392382,546.3477659683067,548.1220462506517,1 45189U 20012M   25283.91021226 -.00004271  00000+0 -26808-3 0  9997,2 45189  53.0556 359.0075 0001281  93.6900 266.4235 15.06392382309482
STARLINK-1234,45190,53.0547,0.0001279,15.10159838,534.8278293532458,536.5963919557516,1 45190U 20012N   25284.33335648  .00784558  00000+0  44428-1 0  9999,2 45190  53.0547 317.0772 0001279  82.7353 328.7556 15.10159838  5865
STARLINK-1269,45197,53.0548,0.0001389,15.06380839,546.3083451942884,548.2322233378591,1 45197U 20012V   25283.92127568  .00004080  00000+0  29281-3 0  9997,2 45197  53.0548 358.9602 0001389  92.7057 267.4091 15.06380839312230
STARLINK-1154,45198,53.055,0.0001536,15.06401763,546.1424218939192,548.269887311013,1 45198U 20012W   25284.31014545 -.00000613  00000+0 -22235-4 0  9995,2 45198  53.0550 337.2119 0001536  94.2852 265.8312 15.06401763312543
STARLINK-1199,45201,53.0548,0.000121,15.06391042,546.401042556563,548.0769835517222,1 45201U 20012Z   25284.32120533  .00004433  00000+0  31639-3 0  9995,2 45201  53.0548 337.1600 0001210  81.1599 278.9527 15.06391042312609
STARLINK-1209,45206,53.0541,0.0001228,15.0638408,546.409912080403,548.1107896697786,1 45206U 20012AE  25283.79963766  .00008728  00000+0  60436-3 0  9991,2 45206  53.0541 319.5048 0001228 102.1726 257.9400 15.06384080311859
STARLINK-1210,45207,53.0271,0.0013366,15.51463399,403.37631379391314,421.5289179550682,1 45207U 20012AF  25284.24325432  .00108600  00000+0  17856-2 0  9992,2 45207  53.0271 284.2308 0013366 341.6955  18.3571 15.51463399313342
STARLINK-1231,45212,53.0522,0.0003431,15.10558879,532.1227223656724,536.866170064065,1 45212U 20012AL  25283.87471451  .00027316  00000+0  16480-2 0  9995,2 45212  53.0522 338.2286 0003431 314.8619  45.2093 15.10558879312501
STARLINK-1271,45217,53.0566,0.0001426,15.06401748,546.2186466348139,548.1937545156179,1 45217U 20012AR  25284.30645410  .00001733  00000+0  13522-3 0  9997,2 45217  53.0566 337.2256 0001426  83.6965 276.4187 15.06401748312607
STARLINK-1191,45222,53.0542,0.000144,15.06420466,546.1515921460741,548.1460744660662,1 45222U 20012AW  25284.31567025  .00005812  00000+0  40856-3 0  9991,2 45222  53.0542 317.1846 0001440  80.9060 279.2092 15.06420466312885
STARLINK-1212,45223,53.0541,0.0001255,15.06393962,546.3609300339767,548.09919716694,1 45223U 20012AX  25284.26784369  .00001617  00000+0  12744-3 0  9992,2 45223  53.0541 318.0531 0001255  82.5236 277.5895 15.06393962312874
STARLINK-1215,45225,53.0559,0.0001457,15.063992,546.2049861820096,548.2230334662736,1 45225U 20012AZ  25284.28987338  .00001354  00000+0  10976-3 0  9990,2 45225  53.0559 317.2999 0001457  97.4330 262.6824 15.06399200312832
STARLINK-1217,45226,53.0371,0.0001589,16.06859561,254.41828919327781,256.52645025097445,1 45226U 20012BA  25284.37124605  .00743762  29465-3  94504-3 0  9996,2 45226  53.0371 254.8019 0001589 131.2637 228.8532 16.06859561313672
STARLINK-1221,45227,53.0676,0.0001688,15.35915598,457.04829413052994,459.35624226747404,1 45227U 20012BB  25284.21832316  .00015989  00000+0  46065-3 0  9997,2 45227  53.0676 254.6954 0001688 269.4826  90.5982 15.35915598313690
STARLINK-1222,45228,53.0543,0.0001327,15.06397702,546.2996062980083,548.1375956745096,1 45228U 20012BC  25284.32304223 -.00000927  00000+0 -43323-4 0  9994,2 45228  53.0543 317.1509 0001327  92.8276 267.2865 15.06397702312772
STARLINK-1226,45229,53.0547,0.0001517,15.06406747,546.1403071928944,548.2414516715144,1 45229U 20012BD  25284.28618662  .00003297  00000+0  24007-3 0  9993,2 45229  53.0547 317.3167 0001517  82.3120 277.8041 15.06406747312775
STARLINK-1227,45230,53.0548,0.0001421,15.0639651,546.2381607562384,548.2063478563114,1 45230U 20012BE  25284.28249651 -.00001220  00000+0 -62993-4 0  9996,2 45230  53.0548 317.3332 0001421  89.7748 270.3404 15.06396510312893
STARLINK-1246,45235,53.0557,0.0001224,15.06387555,546.40203300134,548.0973676655804,1 45235U 20012BK  25283.50108050 -.00001753  00000+0 -98885-4 0  9992,2 45235  53.0557   0.8392 0001224  83.0330 277.0798 15.06387555312229
STARLINK-1270,45237,53.0538,0.0001471,15.06399958,546.1929678704237,548.2304054540382,1 45237U 20012BM  25284.30092789 -.00000437  00000+0 -10453-4 0  9997,2 45237  53.0538 317.2499 0001471  89.1161 270.9997 15.06399958312881
STARLINK-1279,45360,53.0532,0.0001366,15.06398308,546.2707403580525,548.162747000827,1 45360U 20019A   25284.19312265  .00010745  00000+0  73917-3 0  9996,2 45360  53.0532  87.7329 0001366  84.4154 275.6991 15.06398308307604
STARLINK-1301,45361,53.0555,0.0003283,15.07141111,542.668243744617,547.2139368186963,1 45361U 20019B   25284.18081859  .00299387  00000+0  18899-1 0  9995,2 45361  53.0555  97.7877 0003283 241.0340 119.0320 15.07141111307478
STARLINK-1306,45362,53.0491,0.0007438,15.62399651,375.7004520852306,385.75493920647295,1 45362U 20019C   25284.33335648  .00248093  00000+0  26675-2 0  9991,2 45362  53.0491  92.9904 0007438 172.0214  63.0597 15.62399651  5996
STARLINK-1262,45366,53.0534,0.0001059,15.06389524,546.5102677430468,547.9770633680128,1 45366U 20019G   25283.94708273  .00002370  00000+0  17801-3 0  9997,2 45366  53.0534 118.8367 0001059  76.2281 283.8826 15.06389524307168
STARLINK-1273,45367,53.0528,0.0001397,15.06399422,546.2458579845761,548.1808008666176,1 45367U 20019H   25283.96920126  .00001373  00000+0  11107-3 0  9998,2 45367  53.0528 118.7399 0001397  94.2628 265.8520 15.06399422307165
